PANDORA
1 67395U 80229J   26090.65356481  .00000000  00000-0  37770-3 0    06
2 67395  97.8041  90.5247 0006067  38.6114  54.3973 14.87933667    05
